     2.10           NAVIGATION DATA                         RINEX VERSION / TYPE
SPIDER V4,0,0,3554                      2015 04 16 00:49    PGM / RUN BY / DATE 
   1.9558D-08  0.0000D+00 -5.9605D-08  1.1921D-07           ION ALPHA           
   1.3517D+05 -1.1469D+05  6.5536D+04 -2.6214D+05           ION BETA            
    2.793967723846D-09 4.440892098501D-15   589824     1830 DELTA-UTC: A0,A1,T,W
    16                                                      LEAP SECONDS        
                                                            END OF HEADER       
 1 15 02 04 05 59 44.0-9.409617632627D-06 4.547473508865D-13 0.000000000000D+00
    1.000000000000D+01-6.006250000000D+01 4.203746684084D-09 6.080660075214D-01
   -3.015622496605D-06 3.850308363326D-03 1.206435263157D-05 5.153681261063D+03
    2.807840000000D+05 4.470348358154D-08 7.744948857350D-02 7.636845111847D-08
    9.623012614930D-01 1.442500000000D+02 4.140401057695D-01-7.862827722249D-09
   -6.428839231798D-12 1.000000000000D+00 1.830000000000D+03 0.000000000000D+00
    2.000000000000D+00 0.000000000000D+00 5.587935447693D-09 1.000000000000D+01
    2.807840000000D+05 0.000000000000D+00
 3 15 02 04 06 00  0.0 1.896168105304D-04 2.205524651799D-11 0.000000000000D+00
    3.600000000000D+01 4.253125000000D+01 4.780198903376D-09 2.966516298374D+00
    2.101063728333D-06 9.406944736838D-04 6.886199116707D-06 5.153750175476D+03
    2.808000000000D+05 2.235174179077D-08 1.117626186257D+00 1.303851604462D-08
    9.591700521170D-01 2.458125000000D+02-2.993324899768D+00-8.158196784791D-09
    4.560904154349D-10 1.000000000000D+00 1.830000000000D+03 0.000000000000D+00
    2.000000000000D+00 0.000000000000D+00 1.396983861923D-09 3.600000000000D+01
    2.808000000000D+05 0.000000000000D+00
28 15 02 04 06 00  0.0 4.171002656221D-04 2.614797267597D-12 0.000000000000D+00
    3.200000000000D+01 1.034375000000D+02 4.134100617392D-09-2.675465762151D+00
    5.263835191727D-06 1.973147888202D-02 3.471970558167D-06 5.153688846588D+03
    2.808000000000D+05 2.887099981308D-07-1.955074236141D+00 9.313225746155D-08
    9.881502676250D-01 3.236250000000D+02-1.673751566791D+00-7.785681432892D-09
    4.978779055698D-10 1.000000000000D+00 1.830000000000D+03 0.000000000000D+00
    2.000000000000D+00 0.000000000000D+00-1.117587089539D-08 3.200000000000D+01
    2.808000000000D+05 0.000000000000D+00
32 15 02 04 08 00  0.0-2.318602055311D-04 8.981260180008D-12 0.000000000000D+00
    7.500000000000D+01 4.890625000000D+01 5.037352757142D-09 1.577917986092D+00
    2.555549144745D-06 1.134657987859D-02 6.180256605148D-06 5.153577825546D+03
    2.880000000000D+05-4.284083843231D-08 1.200884201304D+00 1.806765794754D-07
    9.468420443888D-01 2.524062500000D+02 1.438090311377D-02-8.300345299972D-09
    2.160804313256D-10 1.000000000000D+00 1.830000000000D+03 0.000000000000D+00
    2.800000000000D+00 0.000000000000D+00-3.725290298462D-09 7.500000000000D+01
    2.880000000000D+05 0.000000000000D+00
 1 15 02 04 08 00  0.0-9.406823664904D-06 4.547473508865D-13 0.000000000000D+00
    2.500000000000D+01-5.678125000000D+01 4.278749798914D-09 1.660973934117D+00
   -2.861022949219D-06 3.849867382087D-03 1.164898276329D-05 5.153678276062D+03
    2.880000000000D+05-3.911554813385D-08 7.739281220128D-02 9.126961231232D-08
    9.623011561629D-01 1.556875000000D+02 4.136407861876D-01-7.838897531087D-09
    3.571577441349D-13 1.000000000000D+00 1.830000000000D+03 0.000000000000D+00
    2.000000000000D+00 0.000000000000D+00 5.587935447693D-09 2.500000000000D+01
    2.880000000000D+05 0.000000000000D+00
 3 15 02 04 08 00  0.0 1.897756010294D-04 2.205524651799D-11 0.000000000000D+00
    3.700000000000D+01 4.512500000000D+01 4.776270490225D-09-2.266395919093D+00
    2.289190888405D-06 9.402077412233D-04 6.692484021187D-06 5.153751125336D+03
    2.880000000000D+05 5.587935447693D-09 1.117567553963D+00 3.539025783539D-08
    9.591733612377D-01 2.483125000000D+02-2.993462324830D+00-8.142839291736D-09
    4.443042322944D-10 1.000000000000D+00 1.830000000000D+03 0.000000000000D+00
    2.000000000000D+00 0.000000000000D+00 1.396983861923D-09 3.700000000000D+01
    2.880000000000D+05 0.000000000000D+00
 4 15 02 04 08 00  0.0-6.665475666523D-06-5.684341886081D-13 0.000000000000D+00
    4.800000000000D+01-6.128125000000D+01 4.769841410734D-09 1.479617649020D+00
   -3.231689333916D-06 1.102358847857D-02 1.160986721516D-05 5.153740728378D+03
    2.880000000000D+05-2.607703208923D-07 5.769510741566D-02-2.607703208923D-08
    9.399311930498D-01 1.473125000000D+02 1.050453922479D+00-8.159982911593D-09
   -1.500062400683D-11 1.000000000000D+00 1.830000000000D+03 0.000000000000D+00
    2.000000000000D+00 0.000000000000D+00-6.519258022308D-09 4.800000000000D+01
    2.880000000000D+05 0.000000000000D+00
11 15 02 04 08 00  0.0-5.555306561291D-04-2.728484105319D-12 0.000000000000D+00
    5.300000000000D+01-1.032812500000D+02 6.061680934977D-09 1.171548882913D+00
   -5.496665835381D-06 1.561101793777D-02 9.585171937943D-06 5.153731100082D+03
    2.880000000000D+05-3.278255462646D-07-2.649631739226D-01-1.490116119385D-07
    8.927328095849D-01 1.638437500000D+02 1.378657229487D+00-8.916085647570D-09
   -2.232235785105D-10 1.000000000000D+00 1.830000000000D+03 0.000000000000D+00
    2.000000000000D+00 0.000000000000D+00-1.210719347000D-08 5.300000000000D+01
    2.880000000000D+05 0.000000000000D+00
14 15 02 04 08 00  0.0 9.058322757483D-05-3.524291969370D-12 0.000000000000D+00
    4.500000000000D+01-4.390625000000D+01 4.478043713618D-09-2.597242305064D+00
   -2.201646566391D-06 7.735877530649D-03 6.264075636864D-06 5.153775352478D+03
    2.880000000000D+05 4.284083843231D-08 2.241761439254D+00-8.381903171539D-08
    9.673704423361D-01 2.625000000000D+02-1.971165363635D+00-7.878185215304D-09
   -3.864446818103D-10 1.000000000000D+00 1.830000000000D+03 0.000000000000D+00
    2.000000000000D+00 0.000000000000D+00-9.313225746155D-09 4.500000000000D+01
    2.880000000000D+05 0.000000000000D+00
19 15 02 04 08 00  0.0-4.992666654289D-04-1.477928890381D-12 0.000000000000D+00
    8.200000000000D+01-9.459375000000D+01 4.556618193874D-09 3.054383269015D+00
   -4.954636096954D-06 1.091472036205D-02 4.153698682785D-06 5.153693164825D+03
    2.880000000000D+05-1.359730958939D-07-8.818161198895D-01-1.359730958939D-07
    9.683129536412D-01 3.040625000000D+02 5.173314102326D-01-8.061407541504D-09
   -3.257278613500D-10 1.000000000000D+00 1.830000000000D+03 0.000000000000D+00
    2.000000000000D+00 0.000000000000D+00-1.490116119385D-08 8.200000000000D+01
    2.880000000000D+05 0.000000000000D+00
22 15 02 04 08 00  0.0 3.146086819470D-04 4.206412995700D-12 0.000000000000D+00
    3.800000000000D+01 4.521875000000D+01 5.512729828183D-09-1.410195402607D+00
    2.300366759300D-06 7.431124919094D-03 6.513670086861D-06 5.153699926376D+03
    2.880000000000D+05 1.695007085800D-07 1.102647843491D+00 1.043081283569D-07
    9.228374414836D-01 2.337187500000D+02-2.067247328806D+00-8.506068738257D-09
    3.596578312948D-10 1.000000000000D+00 1.830000000000D+03 0.000000000000D+00
    2.000000000000D+00 0.000000000000D+00-1.769512891769D-08 3.800000000000D+01
    2.880000000000D+05 0.000000000000D+00
27 15 02 04 08 00  0.0 4.904530942440D-05 2.614797267597D-12 0.000000000000D+00
    8.000000000000D+00-7.628125000000D+01 4.699838740407D-09-2.346629767943D+00
   -4.017725586891D-06 1.931249862537D-03 3.391876816750D-06 5.153686368942D+03
    2.880000000000D+05-3.352761268616D-08-9.789268383121D-01-1.005828380585D-07
    9.660119122393D-01 3.177500000000D+02 1.426425719442D-01-8.332847301062D-09
   -2.617966121665D-10 1.000000000000D+00 1.830000000000D+03 0.000000000000D+00
    2.000000000000D+00 0.000000000000D+00 1.862645149231D-09 8.000000000000D+00
    2.880000000000D+05 0.000000000000D+00
28 15 02 04 08 00  0.0 4.171188920736D-04 2.614797267597D-12 0.000000000000D+00
    3.300000000000D+01 9.628125000000D+01 4.066955217041D-09-1.625254230568D+00
    5.487352609634D-06 1.973098155577D-02 3.524124622345D-06 5.153690660477D+03
    2.880000000000D+05 2.272427082062D-07-1.955130036225D+00 4.079192876816D-07
    9.881529696347D-01 3.257500000000D+02-1.673795401668D+00-7.983904204423D-09
    4.246605567193D-10 1.000000000000D+00 1.830000000000D+03 0.000000000000D+00
    2.000000000000D+00 0.000000000000D+00-1.117587089539D-08 3.300000000000D+01
    2.880000000000D+05 0.000000000000D+00
32 15 02 04 07 59 44.0-2.318602055311D-04 8.981260180008D-12 0.000000000000D+00
    3.800000000000D+01 4.890625000000D+01 5.037352757142D-09 1.575583811059D+00
    2.555549144745D-06 1.134657382499D-02 6.180256605148D-06 5.153577838898D+03
    2.879840000000D+05-4.284083843231D-08 1.200884324189D+00 1.806765794754D-07
    9.468420473147D-01 2.524062500000D+02 1.438111084813D-02-8.300345299972D-09
    2.157232725786D-10 1.000000000000D+00 1.830000000000D+03 0.000000000000D+00
    2.000000000000D+00 0.000000000000D+00-3.725290298462D-09 3.800000000000D+01
    2.879840000000D+05 0.000000000000D+00
23 15 02 04 08 00  0.0-8.640019223094D-05-2.614797267597D-12 0.000000000000D+00
    4.300000000000D+01-4.109375000000D+01 5.002351421979D-09 2.608843685771D+00
   -2.212822437286D-06 9.748051757924D-03 5.941838026047D-06 5.153662439346D+03
    2.880000000000D+05-1.434236764908D-07 2.171867480758D+00-9.685754776001D-08
    9.490773963802D-01 2.598437500000D+02-2.714119840911D+00-8.182841071402D-09
   -4.135886633172D-10 1.000000000000D+00 1.830000000000D+03 0.000000000000D+00
    2.000000000000D+00 0.000000000000D+00-2.002343535423D-08 4.300000000000D+01
    2.880000000000D+05 0.000000000000D+00
